CCSDS_OMM_VERS = 2.0
CREATION_DATE  = 
ORIGINATOR     = 

OBJECT_NAME    = STARLINK-35511
OBJECT_ID      = 2025-253AB
CENTER_NAME    = EARTH
REF_FRAME      = TEME
TIME_SYSTEM    = UTC
MEAN_ELEMENT_THEORY = SGP/SGP4

EPOCH          = 2025-11-16T12:00:02.000160
MEAN_MOTION    = 15.86882949
ECCENTRICITY   = .0001486
INCLINATION    = 42.9958
RA_OF_ASC_NODE = 139.9146
ARG_OF_PERICENTER = 265.7931
MEAN_ANOMALY   = 318.4846

EPHEMERIS_TYPE = 0
CLASSIFICATION_TYPE = U
NORAD_CAT_ID   = 66344
ELEMENT_SET_NO = 999
REV_AT_EPOCH   = 271
BSTAR          = -.84739E-2
MEAN_MOTION_DOT = -.1964314E-1
MEAN_MOTION_DDOT = 0

CCSDS_OMM_VERS = 2.0
CREATION_DATE  = 
ORIGINATOR     = 

OBJECT_NAME    = STARLINK-35440
OBJECT_ID      = 2025-253AC
CENTER_NAME    = EARTH
REF_FRAME      = TEME
TIME_SYSTEM    = UTC
MEAN_ELEMENT_THEORY = SGP/SGP4

EPOCH          = 2025-11-16T12:00:02.000160
MEAN_MOTION    = 15.86873249
ECCENTRICITY   = .000147
INCLINATION    = 42.9951
RA_OF_ASC_NODE = 139.9234
ARG_OF_PERICENTER = 264.4859
MEAN_ANOMALY   = 315.2900

EPHEMERIS_TYPE = 0
CLASSIFICATION_TYPE = U
NORAD_CAT_ID   = 66345
ELEMENT_SET_NO = 999
REV_AT_EPOCH   = 271
BSTAR          = -.83847E-2
MEAN_MOTION_DOT = -.1945516E-1
MEAN_MOTION_DDOT = 0

CCSDS_OMM_VERS = 2.0
CREATION_DATE  = 
ORIGINATOR     = 

OBJECT_NAME    = STARLINK-35482
OBJECT_ID      = 2025-253AD
CENTER_NAME    = EARTH
REF_FRAME      = TEME
TIME_SYSTEM    = UTC
MEAN_ELEMENT_THEORY = SGP/SGP4

EPOCH          = 2025-11-16T12:00:02.000160
MEAN_MOTION    = 15.86887401
ECCENTRICITY   = .0001474
INCLINATION    = 42.9953
RA_OF_ASC_NODE = 139.9193
ARG_OF_PERICENTER = 265.1407
MEAN_ANOMALY   = 316.7334

EPHEMERIS_TYPE = 0
CLASSIFICATION_TYPE = U
NORAD_CAT_ID   = 66346
ELEMENT_SET_NO = 999
REV_AT_EPOCH   = 280
BSTAR          = -.84216E-2
MEAN_MOTION_DOT = -.1954146E-1
MEAN_MOTION_DDOT = 0

CCSDS_OMM_VERS = 2.0
CREATION_DATE  = 
ORIGINATOR     = 

OBJECT_NAME    = STARLINK-35438
OBJECT_ID      = 2025-253AE
CENTER_NAME    = EARTH
REF_FRAME      = TEME
TIME_SYSTEM    = UTC
MEAN_ELEMENT_THEORY = SGP/SGP4

EPOCH          = 2025-11-16T12:00:02.000160
MEAN_MOTION    = 15.86918411
ECCENTRICITY   = .0001508
INCLINATION    = 42.9953
RA_OF_ASC_NODE = 139.9088
ARG_OF_PERICENTER = 264.4452
MEAN_ANOMALY   = 321.5248

EPHEMERIS_TYPE = 0
CLASSIFICATION_TYPE = U
NORAD_CAT_ID   = 66347
ELEMENT_SET_NO = 999
REV_AT_EPOCH   = 271
BSTAR          = -.84719E-2
MEAN_MOTION_DOT = -.1966954E-1
MEAN_MOTION_DDOT = 0

CCSDS_OMM_VERS = 2.0
CREATION_DATE  = 
ORIGINATOR     = 

OBJECT_NAME    = SHIYAN-32 A
OBJECT_ID      = 2025-255A
CENTER_NAME    = EARTH
REF_FRAME      = TEME
TIME_SYSTEM    = UTC
MEAN_ELEMENT_THEORY = SGP/SGP4

EPOCH          = 2025-11-16T12:08:28.732704
MEAN_MOTION    = 15.41490895
ECCENTRICITY   = .0013123
INCLINATION    = 52.9965
RA_OF_ASC_NODE = 302.6473
ARG_OF_PERICENTER = 318.4173
MEAN_ANOMALY   = 41.5831

EPHEMERIS_TYPE = 0
CLASSIFICATION_TYPE = U
NORAD_CAT_ID   = 66376
ELEMENT_SET_NO = 999
REV_AT_EPOCH   = 130
BSTAR          = .66007E-3
MEAN_MOTION_DOT = .27862E-3
MEAN_MOTION_DDOT = 0

CCSDS_OMM_VERS = 2.0
CREATION_DATE  = 
ORIGINATOR     = 

OBJECT_NAME    = SHIYAN-32 B
OBJECT_ID      = 2025-255B
CENTER_NAME    = EARTH
REF_FRAME      = TEME
TIME_SYSTEM    = UTC
MEAN_ELEMENT_THEORY = SGP/SGP4

EPOCH          = 2025-11-16T12:05:45.106656
MEAN_MOTION    = 15.42064773
ECCENTRICITY   = .001451
INCLINATION    = 52.9969
RA_OF_ASC_NODE = 302.6355
ARG_OF_PERICENTER = 316.3557
MEAN_ANOMALY   = 43.6298

EPHEMERIS_TYPE = 0
CLASSIFICATION_TYPE = U
NORAD_CAT_ID   = 66377
ELEMENT_SET_NO = 999
REV_AT_EPOCH   = 116
BSTAR          = .11908E-2
MEAN_MOTION_DOT = .51777E-3
MEAN_MOTION_DDOT = 0

CCSDS_OMM_VERS = 2.0
CREATION_DATE  = 
ORIGINATOR     = 

OBJECT_NAME    = SHIYAN-32 C
OBJECT_ID      = 2025-255C
CENTER_NAME    = EARTH
REF_FRAME      = TEME
TIME_SYSTEM    = UTC
MEAN_ELEMENT_THEORY = SGP/SGP4

EPOCH          = 2025-11-16T12:04:02.424576
MEAN_MOTION    = 15.42375530
ECCENTRICITY   = .0013971
INCLINATION    = 52.9983
RA_OF_ASC_NODE = 302.6276
ARG_OF_PERICENTER = 320.0708
MEAN_ANOMALY   = 39.9267

EPHEMERIS_TYPE = 0
CLASSIFICATION_TYPE = U
NORAD_CAT_ID   = 66378
ELEMENT_SET_NO = 999
REV_AT_EPOCH   = 116
BSTAR          = .12048E-2
MEAN_MOTION_DOT = .52938E-3
MEAN_MOTION_DDOT = 0

CCSDS_OMM_VERS = 2.0
CREATION_DATE  = 
ORIGINATOR     = 

OBJECT_NAME    = CZ-11H R/B
OBJECT_ID      = 2025-255D
CENTER_NAME    = EARTH
REF_FRAME      = TEME
TIME_SYSTEM    = UTC
MEAN_ELEMENT_THEORY = SGP/SGP4

EPOCH          = 2025-11-16T12:05:52.174176
MEAN_MOTION    = 15.41844995
ECCENTRICITY   = .001505
INCLINATION    = 52.9972
RA_OF_ASC_NODE = 302.6364
ARG_OF_PERICENTER = 319.5539
MEAN_ANOMALY   = 40.4345

EPHEMERIS_TYPE = 0
CLASSIFICATION_TYPE = U
NORAD_CAT_ID   = 66379
ELEMENT_SET_NO = 999
REV_AT_EPOCH   = 118
BSTAR          = .6269E-3
MEAN_MOTION_DOT = .2678E-3
MEAN_MOTION_DDOT = 0

CCSDS_OMM_VERS = 2.0
CREATION_DATE  = 
ORIGINATOR     = 

OBJECT_NAME    = CHUTIAN-2 A
OBJECT_ID      = 2025-256A
CENTER_NAME    = EARTH
REF_FRAME      = TEME
TIME_SYSTEM    = UTC
MEAN_ELEMENT_THEORY = SGP/SGP4

EPOCH          = 2025-11-16T12:05:01.923072
MEAN_MOTION    = 14.50843765
ECCENTRICITY   = .0012665
INCLINATION    = 98.2781
RA_OF_ASC_NODE = 25.7230
ARG_OF_PERICENTER = 263.6149
MEAN_ANOMALY   = 96.3603

EPHEMERIS_TYPE = 0
CLASSIFICATION_TYPE = U
NORAD_CAT_ID   = 66409
ELEMENT_SET_NO = 999
REV_AT_EPOCH   = 107
BSTAR          = .43436E-4
MEAN_MOTION_DOT = .127E-5
MEAN_MOTION_DDOT = 0

CCSDS_OMM_VERS = 2.0
CREATION_DATE  = 
ORIGINATOR     = 

OBJECT_NAME    = CHUTIAN-2 B
OBJECT_ID      = 2025-256B
CENTER_NAME    = EARTH
REF_FRAME      = TEME
TIME_SYSTEM    = UTC
MEAN_ELEMENT_THEORY = SGP/SGP4

EPOCH          = 2025-11-16T12:04:06.536352
MEAN_MOTION    = 14.50973311
ECCENTRICITY   = .0012649
INCLINATION    = 98.2821
RA_OF_ASC_NODE = 25.7260
ARG_OF_PERICENTER = 265.5852
MEAN_ANOMALY   = 94.3898

EPHEMERIS_TYPE = 0
CLASSIFICATION_TYPE = U
NORAD_CAT_ID   = 66410
ELEMENT_SET_NO = 999
REV_AT_EPOCH   = 107
BSTAR          = .23461E-3
MEAN_MOTION_DOT = .884E-5
MEAN_MOTION_DDOT = 0

CCSDS_OMM_VERS = 2.0
CREATION_DATE  = 
ORIGINATOR     = 

OBJECT_NAME    = ZK-1A R/B
OBJECT_ID      = 2025-256C
CENTER_NAME    = EARTH
REF_FRAME      = TEME
TIME_SYSTEM    = UTC
MEAN_ELEMENT_THEORY = SGP/SGP4

EPOCH          = 2025-11-14T15:48:08.950752
MEAN_MOTION    = 15.01045438
ECCENTRICITY   = .0233635
INCLINATION    = 98.3233
RA_OF_ASC_NODE = 24.3959
ARG_OF_PERICENTER = 338.5588
MEAN_ANOMALY   = 20.5968

EPHEMERIS_TYPE = 0
CLASSIFICATION_TYPE = U
NORAD_CAT_ID   = 66411
ELEMENT_SET_NO = 999
REV_AT_EPOCH   = 83
BSTAR          = .13678E-3
MEAN_MOTION_DOT = .3051E-4
MEAN_MOTION_DDOT = 0

CCSDS_OMM_VERS = 2.0
CREATION_DATE  = 
ORIGINATOR     = 

OBJECT_NAME    = HULIANWANG DIGUI 13A
OBJECT_ID      = 2025-258A
CENTER_NAME    = EARTH
REF_FRAME      = TEME
TIME_SYSTEM    = UTC
MEAN_ELEMENT_THEORY = SGP/SGP4

EPOCH          = 2025-11-13T17:32:00.557664
MEAN_MOTION    = 14.25865434
ECCENTRICITY   = .00138813
INCLINATION    = 50.0047
RA_OF_ASC_NODE = 24.1929
ARG_OF_PERICENTER = 257.7814
MEAN_ANOMALY   = 102.1545

EPHEMERIS_TYPE = 0
CLASSIFICATION_TYPE = U
NORAD_CAT_ID   = 66412
ELEMENT_SET_NO = 999
REV_AT_EPOCH   = 52
BSTAR          = .90880409E-4
MEAN_MOTION_DOT = .58E-6
MEAN_MOTION_DDOT = 0

