STARLINK-35511          
1 66344U 25253AB  25320.50002315 -.01964314  00000+0 -84739-2 0  9990
2 66344  42.9958 139.9146 0001486 265.7931 318.4846 15.86882949  2711
STARLINK-35440          
1 66345U 25253AC  25320.50002315 -.01945516  00000+0 -83847-2 0  9993
2 66345  42.9951 139.9234 0001470 264.4859 315.2900 15.86873249  2710
STARLINK-35482          
1 66346U 25253AD  25320.50002315 -.01954146  00000+0 -84216-2 0  9994
2 66346  42.9953 139.9193 0001474 265.1407 316.7334 15.86887401  2800
STARLINK-35438          
1 66347U 25253AE  25320.50002315 -.01966954  00000+0 -84719-2 0  9993
2 66347  42.9953 139.9088 0001508 264.4452 321.5248 15.86918411  2718
SHIYAN-32 A             
1 66376U 25255A   25320.50588811  .00027862  00000+0  66007-3 0  9991
2 66376  52.9965 302.6473 0013123 318.4173  41.5831 15.41490895  1300
SHIYAN-32 B             
1 66377U 25255B   25320.50399429  .00051777  00000+0  11908-2 0  9998
2 66377  52.9969 302.6355 0014510 316.3557  43.6298 15.42064773  1165
SHIYAN-32 C             
1 66378U 25255C   25320.50280584  .00052938  00000+0  12048-2 0  9996
2 66378  52.9983 302.6276 0013971 320.0708  39.9267 15.42375530  1164
CZ-11H R/B              
1 66379U 25255D   25320.50407609  .00026780  00000+0  62690-3 0  9991
2 66379  52.9972 302.6364 0015050 319.5539  40.4345 15.41844995  1187
CHUTIAN-2 A             
1 66409U 25256A   25320.50349448  .00000127  00000+0  43436-4 0  9997
2 66409  98.2781  25.7230 0012665 263.6149  96.3603 14.50843765  1070
CHUTIAN-2 B             
1 66410U 25256B   25320.50285343  .00000884  00000+0  23461-3 0  9997
2 66410  98.2821  25.7260 0012649 265.5852  94.3898 14.50973311  1079
ZK-1A R/B               
1 66411U 25256C   25318.65843693  .00003051  00000+0  13678-3 0  9997
2 66411  98.3233  24.3959 0233635 338.5588  20.5968 15.01045438   834
HULIANWANG DIGUI 13A    
1 66412U 25258A   25317.73056201  .00000058  00000+0  90880-4 0  9994
2 66412  50.0047  24.1929 0013881 257.7814 102.1545 14.25865434   526
